{
  "norad_id": 65852,
  "name": "SHIYAN-30 02",
  "history": [
    {
      "epoch": "2026-03-28T20:32:09.520800",
      "apogee_km": 590.3012423657465,
      "perigee_km": 585.1101570690626,
      "latitude_deg": -13.085870066882132,
      "longitude_deg": 127.3439120000694,
      "semi_major_axis_km": 6965.842699717404,
      "eccentricity": 0.00037261,
      "inclination_deg": 34.9983,
      "raan_deg": 23.6137,
      "arg_perigee_deg": 55.1468,
      "mean_anomaly_deg": 304.9588,
      "mean_motion_rev_day": 14.93283503
    }
  ]
}