{"fetched_at":"2026-03-29T16:36:15Z","count":15609,"tles":[{"name":"SHIYAN-30 02","line1":"1 65852U 25222B   26087.85566575  .00003105  00000+0  29344-3 0  9992","line2":"2 65852  34.9983  23.6137 0003726  55.1468 304.9588 14.93283503 27018","category":"Other"}]}